{
  "norad_id": 51750,
  "name": "STARLINK-3505",
  "history": [
    {
      "epoch": "2026-03-28T15:30:59.574240",
      "apogee_km": 540.5892658926914,
      "perigee_km": 539.0078258269086,
      "latitude_deg": -53.0081526066433,
      "longitude_deg": 137.06619359995238,
      "semi_major_axis_km": 6917.9355458598,
      "eccentricity": 0.0001143,
      "inclination_deg": 53.2146,
      "raan_deg": 224.031,
      "arg_perigee_deg": 84.5253,
      "mean_anomaly_deg": 275.587,
      "mean_motion_rev_day": 15.08821955
    }
  ]
}